{
  "type": "FeatureCollection",
  "features": [
    {
      "type": "Feature",
      "properties": {
        "norad_id": 40545,
        "name": "GSAT0204 (GALILEO 8)",
        "group": "gnss",
        "lat": 25.2932501265953,
        "lon": 148.38295742581334,
        "alt_km": 23227.320563893158,
        "timestamp": "2025-12-24T07:45:06.443069+00:00",
        "meta_object_name": "GSAT0204 (GALILEO 8)",
        "meta_object_id": "2015-017B",
        "meta_epoch": "2025-12-20T13:26:28.826304",
        "meta_mean_motion": 1.70475697,
        "meta_eccentricity": 0.0006133,
        "meta_inclination": 56.8522,
        "meta_ra_of_asc_node": 346.4847,
        "meta_arg_of_pericenter": 266.5447,
        "meta_mean_anomaly": 93.3948,
        "meta_ephemeris_type": 0,
        "meta_classification_type": "U",
        "meta_norad_cat_id": 40545,
        "meta_element_set_no": 999,
        "meta_rev_at_epoch": 2920,
        "meta_bstar": 0,
        "meta_mean_motion_dot": -7e-07,
        "meta_mean_motion_ddot": 0,
        "tle_line1": "1 40545U 15017B   25354.56005586 -.00000070  00000+0  00000+0 0  9992",
        "tle_line2": "2 40545  56.8522 346.4847 0006133 266.5447  93.3948  1.70475697 29206"
      },
      "geometry": {
        "type": "Point",
        "coordinates": [
          148.38295742581334,
          25.2932501265953
        ]
      }
    },
    {
      "type": "Feature",
      "properties": {
        "norad_id": 40549,
        "name": "BEIDOU-3S IGSO-1S (C31)",
        "group": "gnss",
        "lat": 4.999721739812944,
        "lon": -58.17781507247817,
        "alt_km": 35932.69878392847,
        "timestamp": "2025-12-24T07:45:06.443081+00:00",
        "meta_object_name": "BEIDOU-3S IGSO-1S (C31)",
        "meta_object_id": "2015-019A",
        "meta_epoch": "2025-12-18T19:55:38.829792",
        "meta_mean_motion": 1.00292047,
        "meta_eccentricity": 0.0036331,
        "meta_inclination": 49.5404,
        "meta_ra_of_asc_node": 297.6395,
        "meta_arg_of_pericenter": 194.0028,
        "meta_mean_anomaly": 349.3621,
        "meta_ephemeris_type": 0,
        "meta_classification_type": "U",
        "meta_norad_cat_id": 40549,
        "meta_element_set_no": 999,
        "meta_rev_at_epoch": 3926,
        "meta_bstar": 0,
        "meta_mean_motion_dot": -1.83e-06,
        "meta_mean_motion_ddot": 0,
        "tle_line1": "1 40549U 15019A   25352.83031053 -.00000183  00000+0  00000+0 0  9999",
        "tle_line2": "2 40549  49.5404 297.6395 0036331 194.0028 349.3621  1.00292047 39264"
      },
      "geometry": {
        "type": "Point",
        "coordinates": [
          -58.17781507247817,
          4.999721739812944
        ]
      }
    },
    {
      "type": "Feature",
      "properties": {
        "norad_id": 40730,
        "name": "GPS BIIF-10 (PRN 08)",
        "group": "gnss",
        "lat": 52.31580030151038,
        "lon": -16.358749584302156,
        "alt_km": 19985.395402098125,
        "timestamp": "2025-12-24T07:45:06.443096+00:00",
        "meta_object_name": "GPS BIIF-10 (PRN 08)",
        "meta_object_id": "2015-033A",
        "meta_epoch": "2025-12-23T05:17:42.404352",
        "meta_mean_motion": 2.00565183,
        "meta_eccentricity": 0.01115799,
        "meta_inclination": 54.1216,
        "meta_ra_of_asc_node": 274.3416,
        "meta_arg_of_pericenter": 27.0753,
        "meta_mean_anomaly": 333.5521,
        "meta_ephemeris_type": 0,
        "meta_classification_type": "U",
        "meta_norad_cat_id": 40730,
        "meta_element_set_no": 999,
        "meta_rev_at_epoch": 7646,
        "meta_bstar": 0,
        "meta_mean_motion_dot": -1.3e-07,
        "meta_mean_motion_ddot": 0,
        "tle_line1": "1 40730U 15033A   25357.22062968 -.00000013  00000+0  00000+0 0  9996",
        "tle_line2": "2 40730  54.1216 274.3416 0111579  27.0753 333.5521  2.00565183 76465"
      },
      "geometry": {
        "type": "Point",
        "coordinates": [
          -16.358749584302156,
          52.31580030151038
        ]
      }
    },
    {
      "type": "Feature",
      "properties": {
        "norad_id": 40748,
        "name": "BEIDOU-3S M2S (C58)",
        "group": "gnss",
        "lat": 24.595597523752904,
        "lon": -33.28688837276193,
        "alt_km": 21541.514509031076,
        "timestamp": "2025-12-24T07:45:06.443108+00:00",
        "meta_object_name": "BEIDOU-3S M2S (C58)",
        "meta_object_id": "2015-037A",
        "meta_epoch": "2025-12-22T03:06:37.980000",
        "meta_mean_motion": 1.86229546,
        "meta_eccentricity": 0.00118585,
        "meta_inclination": 55.0305,
        "meta_ra_of_asc_node": 308.1418,
        "meta_arg_of_pericenter": 270.827,
        "meta_mean_anomaly": 89.0356,
        "meta_ephemeris_type": 0,
        "meta_classification_type": "U",
        "meta_norad_cat_id": 40748,
        "meta_element_set_no": 999,
        "meta_rev_at_epoch": 7082,
        "meta_bstar": 0,
        "meta_mean_motion_dot": -5.8e-07,
        "meta_mean_motion_ddot": 0,
        "tle_line1": "1 40748U 15037A   25356.12960625 -.00000058  00000+0  00000+0 0  9993",
        "tle_line2": "2 40748  55.0305 308.1418 0011858 270.8270  89.0356  1.86229546 70828"
      },
      "geometry": {
        "type": "Point",
        "coordinates": [
          -33.28688837276193,
          24.595597523752904
        ]
      }
    },
    {
      "type": "Feature",
      "properties": {
        "norad_id": 40749,
        "name": "BEIDOU-3S M1S (C57)",
        "group": "gnss",
        "lat": -43.56077713528817,
        "lon": 169.71827544112298,
        "alt_km": 21536.9072033698,
        "timestamp": "2025-12-24T07:45:06.443119+00:00",
        "meta_object_name": "BEIDOU-3S M1S (C57)",
        "meta_object_id": "2015-037B",
        "meta_epoch": "2025-12-22T21:29:24.264672",
        "meta_mean_motion": 1.86253921,
        "meta_eccentricity": 0.00037347,
        "meta_inclination": 55.0261,
        "meta_ra_of_asc_node": 308.1047,
        "meta_arg_of_pericenter": 3.0626,
        "meta_mean_anomaly": 356.941,
        "meta_ephemeris_type": 0,
        "meta_classification_type": "U",
        "meta_norad_cat_id": 40749,
        "meta_element_set_no": 999,
        "meta_rev_at_epoch": 7084,
        "meta_bstar": 0,
        "meta_mean_motion_dot": -5.5e-07,
        "meta_mean_motion_ddot": 0,
        "tle_line1": "1 40749U 15037B   25356.89541973 -.00000055  00000+0  00000+0 0  9996",
        "tle_line2": "2 40749  55.0261 308.1047 0003734   3.0626 356.9410  1.86253921 70846"
      },
      "geometry": {
        "type": "Point",
        "coordinates": [
          169.71827544112298,
          -43.56077713528817
        ]
      }
    },
    {
      "type": "Feature",
      "properties": {
        "norad_id": 40889,
        "name": "GSAT0205 (GALILEO 9)",
        "group": "gnss",
        "lat": -49.680620531117356,
        "lon": 170.82267614308586,
        "alt_km": 23234.465326892543,
        "timestamp": "2025-12-24T07:45:06.443130+00:00",
        "meta_object_name": "GSAT0205 (GALILEO 9)",
        "meta_object_id": "2015-045A",
        "meta_epoch": "2025-12-23T06:16:38.782272",
        "meta_mean_motion": 1.70473104,
        "meta_eccentricity": 0.00062228,
        "meta_inclination": 55.0001,
        "meta_ra_of_asc_node": 226.4673,
        "meta_arg_of_pericenter": 42.5636,
        "meta_mean_anomaly": 317.5856,
        "meta_ephemeris_type": 0,
        "meta_classification_type": "U",
        "meta_norad_cat_id": 40889,
        "meta_element_set_no": 999,
        "meta_rev_at_epoch": 6401,
        "meta_bstar": 0,
        "meta_mean_motion_dot": 7.3e-07,
        "meta_mean_motion_ddot": 0,
        "tle_line1": "1 40889U 15045A   25357.26155998  .00000073  00000+0  00000+0 0  9999",
        "tle_line2": "2 40889  55.0001 226.4673 0006222  42.5636 317.5856  1.70473104 64013"
      },
      "geometry": {
        "type": "Point",
        "coordinates": [
          170.82267614308586,
          -49.680620531117356
        ]
      }
    },
    {
      "type": "Feature",
      "properties": {
        "norad_id": 40890,
        "name": "GSAT0206 (GALILEO 10)",
        "group": "gnss",
        "lat": 19.349156310755657,
        "lon": 32.20834589336168,
        "alt_km": 23224.26201272431,
        "timestamp": "2025-12-24T07:45:06.443143+00:00",
        "meta_object_name": "GSAT0206 (GALILEO 10)",
        "meta_object_id": "2015-045B",
        "meta_epoch": "2025-12-23T11:34:23.439072",
        "meta_mean_motion": 1.70473137,
        "meta_eccentricity": 0.00045197,
        "meta_inclination": 54.999,
        "meta_ra_of_asc_node": 226.4563,
        "meta_arg_of_pericenter": 47.4687,
        "meta_mean_anomaly": 312.6693,
        "meta_ephemeris_type": 0,
        "meta_classification_type": "U",
        "meta_norad_cat_id": 40890,
        "meta_element_set_no": 999,
        "meta_rev_at_epoch": 6404,
        "meta_bstar": 0,
        "meta_mean_motion_dot": 7.2e-07,
        "meta_mean_motion_ddot": 0,
        "tle_line1": "1 40890U 15045B   25357.48221573  .00000072  00000+0  00000+0 0  9997",
        "tle_line2": "2 40890  54.9990 226.4563 0004519  47.4687 312.6693  1.70473137 64049"
      },
      "geometry": {
        "type": "Point",
        "coordinates": [
          32.20834589336168,
          19.349156310755657
        ]
      }
    }
  ]
}